IDEFIX & ARIANE 42P R/B 
1 27422U 02021B   26001.79103696  .00000667  00000+0  27014-3 0  9997
2 27422  98.5807 301.2240 0012424  28.9672 331.2199 14.30968606234454
AQUA                    
1 27424U 02022A   25365.92641127  .00002078  00000+0  42628-3 0  9999
2 27424  98.4058 327.1196 0001962  94.7781 340.6230 14.61783896258835
CZ-4B R/B               
1 27432U 02024C   26002.15995791  .00000137  00000+0  93590-4 0  9992
2 27432  98.8968  55.8574 0049714 211.0920 217.3644 14.14533029219834
MIDORI II (ADEOS-II)    
1 27597U 02056A   26001.80779223  .00000650  00000+0  27365-3 0  9996
2 27597  98.7662 319.8722 0001172 137.9071 222.2200 14.29223808200743
H-2A R/B                
1 27601U 02056E   26001.92065781  .00000782  00000+0  28877-3 0  9997
2 27601  98.3091 324.8769 0070397   1.5480  63.3058 14.33698567204543
CZ-4B R/B               
1 28059U 03049C   26001.95228123  .00000843  00000+0  20463-3 0  9993
2 28059  98.6802 354.2814 0049306  75.6689 284.9974 14.54933366176897
CZ-2C R/B               
1 28222U 04012C   26002.12159102  .00060323  00000+0  81870-3 0  9994
2 28222  97.7387  61.4473 0016728 191.9908 168.0951 15.57282733193898
SL-16 R/B               
1 28353U 04021B   26002.12842244  .00000427  00000+0  24724-3 0  9999
2 28353  71.0012  12.1770 0004099 165.7643 194.3596 14.14585837113420
CZ-2C R/B               
1 28480U 04046B   26002.15324193  .00000544  00000+0  21734-3 0  9996
2 28480  98.1997 281.2638 0139385 352.1371   7.7625 14.26956765 99015
ARIANE 5 R/B            
1 28499U 04049H   26002.00114912  .00002797  00000+0  31435-3 0  9990
2 28499  98.2526 168.0112 0083924 206.5199 153.1710 14.85079337135894
CZ-2D R/B               
1 28738U 05024B   26002.00819597  .00050271  00000+0  75957-3 0  9998
2 28738  97.3617  15.0034 0003038 263.8340  96.2568 15.54566837129408
