CCSDS_OMM_VERS = 2.0
CREATION_DATE  = 
ORIGINATOR     = 

OBJECT_NAME    = IDEFIX & ARIANE 42P R/B
OBJECT_ID      = 2002-021B
CENTER_NAME    = EARTH
REF_FRAME      = TEME
TIME_SYSTEM    = UTC
MEAN_ELEMENT_THEORY = SGP/SGP4

EPOCH          = 2026-01-01T18:59:05.593344
MEAN_MOTION    = 14.30968606
ECCENTRICITY   = .00124249
INCLINATION    = 98.5807
RA_OF_ASC_NODE = 301.2240
ARG_OF_PERICENTER = 28.9672
MEAN_ANOMALY   = 331.2199

EPHEMERIS_TYPE = 0
CLASSIFICATION_TYPE = U
NORAD_CAT_ID   = 27422
ELEMENT_SET_NO = 999
REV_AT_EPOCH   = 23445
BSTAR          = .27014361E-3
MEAN_MOTION_DOT = .667E-5
MEAN_MOTION_DDOT = 0

CCSDS_OMM_VERS = 2.0
CREATION_DATE  = 
ORIGINATOR     = 

OBJECT_NAME    = AQUA
OBJECT_ID      = 2002-022A
CENTER_NAME    = EARTH
REF_FRAME      = TEME
TIME_SYSTEM    = UTC
MEAN_ELEMENT_THEORY = SGP/SGP4

EPOCH          = 2025-12-31T22:14:01.933728
MEAN_MOTION    = 14.61783896
ECCENTRICITY   = .0001962
INCLINATION    = 98.4058
RA_OF_ASC_NODE = 327.1196
ARG_OF_PERICENTER = 94.7781
MEAN_ANOMALY   = 340.6230

EPHEMERIS_TYPE = 0
CLASSIFICATION_TYPE = U
NORAD_CAT_ID   = 27424
ELEMENT_SET_NO = 999
REV_AT_EPOCH   = 25883
BSTAR          = .42628E-3
MEAN_MOTION_DOT = .2078E-4
MEAN_MOTION_DDOT = 0

CCSDS_OMM_VERS = 2.0
CREATION_DATE  = 
ORIGINATOR     = 

OBJECT_NAME    = CZ-4B R/B
OBJECT_ID      = 2002-024C
CENTER_NAME    = EARTH
REF_FRAME      = TEME
TIME_SYSTEM    = UTC
MEAN_ELEMENT_THEORY = SGP/SGP4

EPOCH          = 2026-01-02T03:50:20.363424
MEAN_MOTION    = 14.14533029
ECCENTRICITY   = .0049714
INCLINATION    = 98.8968
RA_OF_ASC_NODE = 55.8574
ARG_OF_PERICENTER = 211.0920
MEAN_ANOMALY   = 217.3644

EPHEMERIS_TYPE = 0
CLASSIFICATION_TYPE = U
NORAD_CAT_ID   = 27432
ELEMENT_SET_NO = 999
REV_AT_EPOCH   = 21983
BSTAR          = .9359E-4
MEAN_MOTION_DOT = .137E-5
MEAN_MOTION_DDOT = 0

CCSDS_OMM_VERS = 2.0
CREATION_DATE  = 
ORIGINATOR     = 

OBJECT_NAME    = MIDORI II (ADEOS-II)
OBJECT_ID      = 2002-056A
CENTER_NAME    = EARTH
REF_FRAME      = TEME
TIME_SYSTEM    = UTC
MEAN_ELEMENT_THEORY = SGP/SGP4

EPOCH          = 2026-01-01T19:23:13.249536
MEAN_MOTION    = 14.29223808
ECCENTRICITY   = .0001172
INCLINATION    = 98.7662
RA_OF_ASC_NODE = 319.8722
ARG_OF_PERICENTER = 137.9071
MEAN_ANOMALY   = 222.2200

EPHEMERIS_TYPE = 0
CLASSIFICATION_TYPE = U
NORAD_CAT_ID   = 27597
ELEMENT_SET_NO = 999
REV_AT_EPOCH   = 20074
BSTAR          = .27365145E-3
MEAN_MOTION_DOT = .65E-5
MEAN_MOTION_DDOT = 0

CCSDS_OMM_VERS = 2.0
CREATION_DATE  = 
ORIGINATOR     = 

OBJECT_NAME    = H-2A R/B
OBJECT_ID      = 2002-056E
CENTER_NAME    = EARTH
REF_FRAME      = TEME
TIME_SYSTEM    = UTC
MEAN_ELEMENT_THEORY = SGP/SGP4

EPOCH          = 2026-01-01T22:05:44.834784
MEAN_MOTION    = 14.33698567
ECCENTRICITY   = .0070397
INCLINATION    = 98.3091
RA_OF_ASC_NODE = 324.8769
ARG_OF_PERICENTER = 1.5480
MEAN_ANOMALY   = 63.3058

EPHEMERIS_TYPE = 0
CLASSIFICATION_TYPE = U
NORAD_CAT_ID   = 27601
ELEMENT_SET_NO = 999
REV_AT_EPOCH   = 20454
BSTAR          = .28877E-3
MEAN_MOTION_DOT = .782E-5
MEAN_MOTION_DDOT = 0

CCSDS_OMM_VERS = 2.0
CREATION_DATE  = 
ORIGINATOR     = 

OBJECT_NAME    = CZ-4B R/B
OBJECT_ID      = 2003-049C
CENTER_NAME    = EARTH
REF_FRAME      = TEME
TIME_SYSTEM    = UTC
MEAN_ELEMENT_THEORY = SGP/SGP4

EPOCH          = 2026-01-01T22:51:17.098272
MEAN_MOTION    = 14.54933366
ECCENTRICITY   = .0049306
INCLINATION    = 98.6802
RA_OF_ASC_NODE = 354.2814
ARG_OF_PERICENTER = 75.6689
MEAN_ANOMALY   = 284.9974

EPHEMERIS_TYPE = 0
CLASSIFICATION_TYPE = U
NORAD_CAT_ID   = 28059
ELEMENT_SET_NO = 999
REV_AT_EPOCH   = 17689
BSTAR          = .20463E-3
MEAN_MOTION_DOT = .843E-5
MEAN_MOTION_DDOT = 0

CCSDS_OMM_VERS = 2.0
CREATION_DATE  = 
ORIGINATOR     = 

OBJECT_NAME    = CZ-2C R/B
OBJECT_ID      = 2004-012C
CENTER_NAME    = EARTH
REF_FRAME      = TEME
TIME_SYSTEM    = UTC
MEAN_ELEMENT_THEORY = SGP/SGP4

EPOCH          = 2026-01-02T02:55:05.464128
MEAN_MOTION    = 15.57282733
ECCENTRICITY   = .0016728
INCLINATION    = 97.7387
RA_OF_ASC_NODE = 61.4473
ARG_OF_PERICENTER = 191.9908
MEAN_ANOMALY   = 168.0951

EPHEMERIS_TYPE = 0
CLASSIFICATION_TYPE = U
NORAD_CAT_ID   = 28222
ELEMENT_SET_NO = 999
REV_AT_EPOCH   = 19389
BSTAR          = .8187E-3
MEAN_MOTION_DOT = .60323E-3
MEAN_MOTION_DDOT = 0

CCSDS_OMM_VERS = 2.0
CREATION_DATE  = 
ORIGINATOR     = 

OBJECT_NAME    = SL-16 R/B
OBJECT_ID      = 2004-021B
CENTER_NAME    = EARTH
REF_FRAME      = TEME
TIME_SYSTEM    = UTC
MEAN_ELEMENT_THEORY = SGP/SGP4

EPOCH          = 2026-01-02T03:04:55.698816
MEAN_MOTION    = 14.14585837
ECCENTRICITY   = .0004099
INCLINATION    = 71.0012
RA_OF_ASC_NODE = 12.1770
ARG_OF_PERICENTER = 165.7643
MEAN_ANOMALY   = 194.3596

EPHEMERIS_TYPE = 0
CLASSIFICATION_TYPE = U
NORAD_CAT_ID   = 28353
ELEMENT_SET_NO = 999
REV_AT_EPOCH   = 11342
BSTAR          = .24724E-3
MEAN_MOTION_DOT = .427E-5
MEAN_MOTION_DDOT = 0

CCSDS_OMM_VERS = 2.0
CREATION_DATE  = 
ORIGINATOR     = 

OBJECT_NAME    = CZ-2C R/B
OBJECT_ID      = 2004-046B
CENTER_NAME    = EARTH
REF_FRAME      = TEME
TIME_SYSTEM    = UTC
MEAN_ELEMENT_THEORY = SGP/SGP4

EPOCH          = 2026-01-02T03:40:40.102752
MEAN_MOTION    = 14.26956765
ECCENTRICITY   = .0139385
INCLINATION    = 98.1997
RA_OF_ASC_NODE = 281.2638
ARG_OF_PERICENTER = 352.1371
MEAN_ANOMALY   = 7.7625

EPHEMERIS_TYPE = 0
CLASSIFICATION_TYPE = U
NORAD_CAT_ID   = 28480
ELEMENT_SET_NO = 999
REV_AT_EPOCH   = 9901
BSTAR          = .21734E-3
MEAN_MOTION_DOT = .544E-5
MEAN_MOTION_DDOT = 0

CCSDS_OMM_VERS = 2.0
CREATION_DATE  = 
ORIGINATOR     = 

OBJECT_NAME    = ARIANE 5 R/B
OBJECT_ID      = 2004-049H
CENTER_NAME    = EARTH
REF_FRAME      = TEME
TIME_SYSTEM    = UTC
MEAN_ELEMENT_THEORY = SGP/SGP4

EPOCH          = 2026-01-02T00:01:39.283968
MEAN_MOTION    = 14.85079337
ECCENTRICITY   = .0083924
INCLINATION    = 98.2526
RA_OF_ASC_NODE = 168.0112
ARG_OF_PERICENTER = 206.5199
MEAN_ANOMALY   = 153.1710

EPHEMERIS_TYPE = 0
CLASSIFICATION_TYPE = U
NORAD_CAT_ID   = 28499
ELEMENT_SET_NO = 999
REV_AT_EPOCH   = 13589
BSTAR          = .31435E-3
MEAN_MOTION_DOT = .2797E-4
MEAN_MOTION_DDOT = 0

CCSDS_OMM_VERS = 2.0
CREATION_DATE  = 
ORIGINATOR     = 

OBJECT_NAME    = CZ-2D R/B
OBJECT_ID      = 2005-024B
CENTER_NAME    = EARTH
REF_FRAME      = TEME
TIME_SYSTEM    = UTC
MEAN_ELEMENT_THEORY = SGP/SGP4

EPOCH          = 2026-01-02T00:11:48.131808
MEAN_MOTION    = 15.54566837
ECCENTRICITY   = .0003038
INCLINATION    = 97.3617
RA_OF_ASC_NODE = 15.0034
ARG_OF_PERICENTER = 263.8340
MEAN_ANOMALY   = 96.2568

EPHEMERIS_TYPE = 0
CLASSIFICATION_TYPE = U
NORAD_CAT_ID   = 28738
ELEMENT_SET_NO = 999
REV_AT_EPOCH   = 12940
BSTAR          = .75957E-3
MEAN_MOTION_DOT = .50271E-3
MEAN_MOTION_DDOT = 0

